{
  "norad_id": 63058,
  "name": "STARLINK-11418 [DTC]",
  "history": [
    {
      "epoch": "2026-03-28T20:57:20.321568Z",
      "apogee_km": 356.8837610137307,
      "perigee_km": 355.868600496864,
      "latitude_deg": 2.9741197106381545e-05,
      "longitude_deg": 119.47210484637935,
      "height_km": 356.3522322005532,
      "semi_major_axis_km": 6734.513180755297,
      "eccentricity": 7.537e-05,
      "inclination_deg": 42.998,
      "raan_deg": 260.0941,
      "arg_perigee_deg": 246.2417,
      "mean_anomaly_deg": 113.8372,
      "mean_motion_rev_day": 15.70881594
    }
  ]
}